{
  "type": "FeatureCollection",
  "features": [
    {
      "type": "Feature",
      "properties": {
        "norad_id": 31307,
        "name": "GALAXY 17 (G-17)",
        "group": "intelsat",
        "lat": -2.1185218119457425,
        "lon": -41.664894548228,
        "alt_km": 35777.11155109135,
        "timestamp": "2025-12-23T20:42:36.739849+00:00",
        "meta_object_name": "GALAXY 17 (G-17)",
        "meta_object_id": "2007-016B",
        "meta_epoch": "2025-12-23T04:10:07.906368",
        "meta_mean_motion": 1.00269631,
        "meta_eccentricity": 0.0005341,
        "meta_inclination": 2.5245,
        "meta_ra_of_asc_node": 82.1678,
        "meta_arg_of_pericenter": 171.9507,
        "meta_mean_anomaly": 175.3964,
        "meta_ephemeris_type": 0,
        "meta_classification_type": "U",
        "meta_norad_cat_id": 31307,
        "meta_element_set_no": 999,
        "meta_rev_at_epoch": 6803,
        "meta_bstar": 0,
        "meta_mean_motion_dot": -1.86e-06,
        "meta_mean_motion_ddot": 0,
        "tle_line1": "1 31307U 07016B   25357.17370262 -.00000186  00000+0  00000+0 0  9992",
        "tle_line2": "2 31307   2.5245  82.1678 0005341 171.9507 175.3964  1.00269631 68039"
      },
      "geometry": {
        "type": "Point",
        "coordinates": [
          -41.664894548228,
          -2.1185218119457425
        ]
      }
    },
    {
      "type": "Feature",
      "properties": {
        "norad_id": 31862,
        "name": "DIRECTV 10",
        "group": "intelsat",
        "lat": -0.00807555327124262,
        "lon": -59.488196149227115,
        "alt_km": 35785.21754280709,
        "timestamp": "2025-12-23T20:42:36.739861+00:00",
        "meta_object_name": "DIRECTV 10",
        "meta_object_id": "2007-032A",
        "meta_epoch": "2025-12-22T14:23:17.397024",
        "meta_mean_motion": 1.00274167,
        "meta_eccentricity": 2.112e-05,
        "meta_inclination": 0.0071,
        "meta_ra_of_asc_node": 104.9786,
        "meta_arg_of_pericenter": 118.9337,
        "meta_mean_anomaly": 340.5167,
        "meta_ephemeris_type": 0,
        "meta_classification_type": "U",
        "meta_norad_cat_id": 31862,
        "meta_element_set_no": 999,
        "meta_rev_at_epoch": 4382,
        "meta_bstar": 0,
        "meta_mean_motion_dot": -8.2e-07,
        "meta_mean_motion_ddot": 0,
        "tle_line1": "1 31862U 07032A   25356.59950691 -.00000082  00000+0  00000+0 0  9996",
        "tle_line2": "2 31862   0.0071 104.9786 0000211 118.9337 340.5167  1.00274167 43822"
      },
      "geometry": {
        "type": "Point",
        "coordinates": [
          -59.488196149227115,
          -0.00807555327124262
        ]
      }
    },
    {
      "type": "Feature",
      "properties": {
        "norad_id": 32253,
        "name": "INTELSAT 11 (IS-11)",
        "group": "intelsat",
        "lat": 2.0213597465432747,
        "lon": -139.91741986998818,
        "alt_km": 36099.76006375952,
        "timestamp": "2025-12-23T20:42:36.739873+00:00",
        "meta_object_name": "INTELSAT 11 (IS-11)",
        "meta_object_id": "2007-044B",
        "meta_epoch": "2025-12-23T03:42:55.513152",
        "meta_mean_motion": 0.99052878,
        "meta_eccentricity": 0.00085567,
        "meta_inclination": 3.1056,
        "meta_ra_of_asc_node": 80.8614,
        "meta_arg_of_pericenter": 170.1579,
        "meta_mean_anomaly": 76.5623,
        "meta_ephemeris_type": 0,
        "meta_classification_type": "U",
        "meta_norad_cat_id": 32253,
        "meta_element_set_no": 999,
        "meta_rev_at_epoch": 6670,
        "meta_bstar": 0,
        "meta_mean_motion_dot": -1.38e-06,
        "meta_mean_motion_ddot": 0,
        "tle_line1": "1 32253U 07044B   25357.15480918 -.00000138  00000+0  00000+0 0  9999",
        "tle_line2": "2 32253   3.1056  80.8614 0008556 170.1579  76.5623  0.99052878 66709"
      },
      "geometry": {
        "type": "Point",
        "coordinates": [
          -139.91741986998818,
          2.0213597465432747
        ]
      }
    },
    {
      "type": "Feature",
      "properties": {
        "norad_id": 32388,
        "name": "HORIZONS-2",
        "group": "intelsat",
        "lat": -1.990020944546539,
        "lon": -30.4678692745014,
        "alt_km": 35774.373451346,
        "timestamp": "2025-12-23T20:42:36.739885+00:00",
        "meta_object_name": "HORIZONS-2",
        "meta_object_id": "2007-063B",
        "meta_epoch": "2025-12-23T03:26:55.180608",
        "meta_mean_motion": 1.00270554,
        "meta_eccentricity": 0.00046646,
        "meta_inclination": 2.147,
        "meta_ra_of_asc_node": 82.8487,
        "meta_arg_of_pericenter": 195.5064,
        "meta_mean_anomaly": 151.5248,
        "meta_ephemeris_type": 0,
        "meta_classification_type": "U",
        "meta_norad_cat_id": 32388,
        "meta_element_set_no": 999,
        "meta_rev_at_epoch": 6604,
        "meta_bstar": 0,
        "meta_mean_motion_dot": -2.33e-06,
        "meta_mean_motion_ddot": 0,
        "tle_line1": "1 32388U 07063B   25357.14369422 -.00000233  00000+0  00000+0 0  9990",
        "tle_line2": "2 32388   2.1470  82.8487 0004664 195.5064 151.5248  1.00270554 66043"
      },
      "geometry": {
        "type": "Point",
        "coordinates": [
          -30.4678692745014,
          -1.990020944546539
        ]
      }
    },
    {
      "type": "Feature",
      "properties": {
        "norad_id": 32729,
        "name": "DIRECTV 11",
        "group": "intelsat",
        "lat": -0.00667817847888247,
        "lon": -55.9260123238052,
        "alt_km": 35789.81840905807,
        "timestamp": "2025-12-23T20:42:36.739897+00:00",
        "meta_object_name": "DIRECTV 11",
        "meta_object_id": "2008-013A",
        "meta_epoch": "2025-12-21T16:09:00.789984",
        "meta_mean_motion": 1.00267418,
        "meta_eccentricity": 8.567e-05,
        "meta_inclination": 0.0458,
        "meta_ra_of_asc_node": 200.3144,
        "meta_arg_of_pericenter": 330.5483,
        "meta_mean_anomaly": 62.6867,
        "meta_ephemeris_type": 0,
        "meta_classification_type": "U",
        "meta_norad_cat_id": 32729,
        "meta_element_set_no": 999,
        "meta_rev_at_epoch": 4381,
        "meta_bstar": 0,
        "meta_mean_motion_dot": -1.03e-06,
        "meta_mean_motion_ddot": 0,
        "tle_line1": "1 32729U 08013A   25355.67292581 -.00000103  00000+0  00000+0 0  9998",
        "tle_line2": "2 32729   0.0458 200.3144 0000856 330.5483  62.6867  1.00267418 43811"
      },
      "geometry": {
        "type": "Point",
        "coordinates": [
          -55.9260123238052,
          -0.00667817847888247
        ]
      }
    },
    {
      "type": "Feature",
      "properties": {
        "norad_id": 32951,
        "name": "GALAXY 18 (G-18)",
        "group": "intelsat",
        "lat": -0.01773134252587347,
        "lon": -79.71300053970658,
        "alt_km": 35773.65785537887,
        "timestamp": "2025-12-23T20:42:36.739909+00:00",
        "meta_object_name": "GALAXY 18 (G-18)",
        "meta_object_id": "2008-024A",
        "meta_epoch": "2025-12-23T05:48:55.381824",
        "meta_mean_motion": 1.00271974,
        "meta_eccentricity": 0.00029187,
        "meta_inclination": 0.0164,
        "meta_ra_of_asc_node": 296.5123,
        "meta_arg_of_pericenter": 340.1178,
        "meta_mean_anomaly": 139.6266,
        "meta_ephemeris_type": 0,
        "meta_classification_type": "U",
        "meta_norad_cat_id": 32951,
        "meta_element_set_no": 999,
        "meta_rev_at_epoch": 4408,
        "meta_bstar": 0,
        "meta_mean_motion_dot": 4.6e-07,
        "meta_mean_motion_ddot": 0,
        "tle_line1": "1 32951U 08024A   25357.24230766  .00000046  00000+0  00000+0 0  9994",
        "tle_line2": "2 32951   0.0164 296.5123 0002918 340.1178 139.6266  1.00271974 44085"
      },
      "geometry": {
        "type": "Point",
        "coordinates": [
          -79.71300053970658,
          -0.01773134252587347
        ]
      }
    },
    {
      "type": "Feature",
      "properties": {
        "norad_id": 33153,
        "name": "INTELSAT 25 (IS-25)",
        "group": "intelsat",
        "lat": -2.128857147234467,
        "lon": 11.866477236406928,
        "alt_km": 35790.55130568602,
        "timestamp": "2025-12-23T20:42:36.739921+00:00",
        "meta_object_name": "INTELSAT 25 (IS-25)",
        "meta_object_id": "2008-034A",
        "meta_epoch": "2025-12-23T06:08:04.061184",
        "meta_mean_motion": 1.0027274,
        "meta_eccentricity": 0.00048491,
        "meta_inclination": 2.2531,
        "meta_ra_of_asc_node": 82.5374,
        "meta_arg_of_pericenter": 186.828,
        "meta_mean_anomaly": 243.1998,
        "meta_ephemeris_type": 0,
        "meta_classification_type": "U",
        "meta_norad_cat_id": 33153,
        "meta_element_set_no": 999,
        "meta_rev_at_epoch": 6393,
        "meta_bstar": 0,
        "meta_mean_motion_dot": -2.04e-06,
        "meta_mean_motion_ddot": 0,
        "tle_line1": "1 33153U 08034A   25357.25560256 -.00000204  00000+0  00000+0 0  9998",
        "tle_line2": "2 33153   2.2531  82.5374 0004849 186.8280 243.1998  1.00272740 63937"
      },
      "geometry": {
        "type": "Point",
        "coordinates": [
          11.866477236406928,
          -2.128857147234467
        ]
      }
    }
  ]
}